0 IRIDIUM 155
1 43573U 18061E   24002.72516673  .00000576  00000-0  19858-3 0  9995
2 43573  86.3953  71.3466 0002323  88.9444 271.2018 14.34216324284861
0 IRIDIUM 155
1 43573U 18061E   24003.56238968  .00000373  00000-0  12605-3 0  9994
2 43573  86.3953  70.9964 0002329  88.7492 271.3970 14.34216620284986
0 IRIDIUM 155
1 43573U 18061E   24003.70192684  .00000314  00000-0  10519-3 0  9991
2 43573  86.3953  70.9380 0002326  88.9955 271.1507 14.34216575285008
0 IRIDIUM 155
1 43573U 18061E   24004.19030667  .00000351  00000-0  11816-3 0  9999
2 43573  86.3952  70.7336 0002325  88.8979 271.2483 14.34217035285084
0 IRIDIUM 155
1 43573U 18061E   24004.60891799  .00000296  00000-0  98707-4 0  9999
2 43573  86.3952  70.5586 0002322  88.8806 271.2656 14.34217081285134
0 IRIDIUM 155
1 43573U 18061E   24004.67868656  .00000281  00000-0  93434-4 0  9998
2 43573  86.3952  70.5294 0002319  88.7188 271.4273 14.34217068285141
0 IRIDIUM 155
1 43573U 18061E   24005.23683480  .00000286  00000-0  95101-4 0  9999
2 43573  86.3951  70.2960 0002323  88.8866 271.2596 14.34217441285237
0 IRIDIUM 155
1 43573U 18061E   24005.58567747  .00000282  00000-0  93565-4 0  9992
2 43573  86.3951  70.1501 0002320  88.7886 271.3576 14.34217582285274
0 IRIDIUM 155
1 43573U 18061E   24005.72521452  .00000275  00000-0  91029-4 0  9996
2 43573  86.3951  70.0917 0002317  88.6375 271.5087 14.34217629285295
0 IRIDIUM 155
1 43573U 18061E   24006.21359405  .00000283  00000-0  93967-4 0  9990
2 43573  86.3950  69.8875 0002316  88.4717 271.6744 14.34217954285360
0 IRIDIUM 155
1 43573U 18061E   24006.70197353  .00000286  00000-0  95008-4 0  9997
2 43573  86.3949  69.6832 0002312  88.4792 271.6668 14.34218226285434
0 IRIDIUM 155
1 43573U 18061E   24007.60896365  .00000316  00000-0  10566-3 0  9995
2 43573  86.3948  69.3038 0002327  89.4311 270.7152 14.34218882285562
0 IRIDIUM 155
1 43573U 18061E   24007.81826905  .00000312  00000-0  10426-3 0  9992
2 43573  86.3948  69.2163 0002329  89.2872 270.8590 14.34218971285603
0 IRIDIUM 155
1 43573U 18061E   24007.88803751  .00000297  00000-0  98872-4 0  9997
2 43573  86.3947  69.1871 0002329  89.2535 270.8927 14.34218925285606
0 IRIDIUM 155
1 43573U 18061E   24008.58572198  .00000310  00000-0  10349-3 0  9991
2 43573  86.3946  68.8952 0002331  89.3127 270.8336 14.34219373285705
0 IRIDIUM 155
1 43573U 18061E   24010.19039939  .00000357  00000-0  12051-3 0  9995
2 43573  86.3944  68.2241 0002320  88.9605 271.1856 14.34217678285934
0 IRIDIUM 155
1 43573U 18061E   24011.23692671  .00000418  00000-0  14221-3 0  9998
2 43573  86.3943  67.7863 0002308  88.3207 271.8253 14.34218692286098
0 IRIDIUM 155
1 43573U 18061E   24011.58576902  .00000431  00000-0  14681-3 0  9999
2 43573  86.3943  67.6404 0002305  88.2056 271.9404 14.34219033286130
0 IRIDIUM 155
1 43573U 18061E   24011.65553748  .00000423  00000-0  14412-3 0  9993
2 43573  86.3943  67.6112 0002303  88.1113 272.0346 14.34219058286142
0 IRIDIUM 155
1 43573U 18061E   24012.56252709  .00000456  00000-0  15592-3 0  9993
2 43573  86.3942  67.2318 0002299  87.7308 272.4151 14.34219933286274
0 IRIDIUM 155
1 43573U 18061E   24012.70206396  .00000446  00000-0  15203-3 0  9998
2 43573  86.3941  67.1733 0002286  86.6716 273.4742 14.34219999286291
0 IRIDIUM 155
1 43573U 18061E   24013.53928481  .00000441  00000-0  15050-3 0  9991
2 43573  86.3940  66.8232 0002301  87.5969 272.5491 14.34220612286417
0 IRIDIUM 155
1 43573U 18061E   24014.16720342  .00000102  00000-0  29419-4 0  9996
2 43573  86.3939  66.5599 0002262  87.5416 272.6039 14.34216237286519
0 IRIDIUM 155
1 43573U 18061E   24014.58581483  .00000105  00000-0  30543-4 0  9996
2 43573  86.3940  66.3850 0002265  87.8399 272.3056 14.34216422286562
0 IRIDIUM 155
1 43573U 18061E   24014.65558339  .00000104  00000-0  30070-4 0  9992
2 43573  86.3940  66.3559 0002265  87.7552 272.3903 14.34216450286571
0 IRIDIUM 154
1 43574U 18061F   24001.58983928  .00000314  00000-0  10502-3 0  9997
2 43574  86.3958  71.9107 0002200 106.2310 253.9128 14.34215510284758
0 IRIDIUM 154
1 43574U 18061F   24001.72937654  .00000219  00000-0  71292-4 0  9996
2 43574  86.3957  71.8523 0002196 105.4459 254.6980 14.34215519284772
0 IRIDIUM 154
1 43574U 18061F   24002.56659974  .00000402  00000-0  13634-3 0  9994
2 43574  86.3958  71.5025 0002177 102.9072 257.2367 14.34216430284893
0 IRIDIUM 154
1 43574U 18061F   24002.70613693  .00000341  00000-0  11471-3 0  9997
2 43574  86.3958  71.4441 0002182 103.2226 256.9213 14.34216373284910
0 IRIDIUM 154
1 43574U 18061F   24003.12474838  .00000320  00000-0  10728-3 0  9991
2 43574  86.3957  71.2690 0002198 103.2091 256.9350 14.34216559284974
0 IRIDIUM 154
1 43574U 18061F   24003.54335971  .00000341  00000-0  11485-3 0  9995
2 43574  86.3958  71.0943 0002199 102.8521 257.2920 14.34216894285035
0 IRIDIUM 154
1 43574U 18061F   24003.68289691  .00000291  00000-0  96886-4 0  9990
2 43574  86.3957  71.0359 0002192 102.8665 257.2776 14.34216800285055
0 IRIDIUM 154
1 43574U 18061F   24004.17127675  .00000303  00000-0  10122-3 0  9990
2 43574  86.3957  70.8317 0002204 102.4919 257.6523 14.34217170285121
0 IRIDIUM 154
1 43574U 18061F   24004.58988803  .00000274  00000-0  90858-4 0  9995
2 43574  86.3957  70.6567 0002212 102.3356 257.8087 14.34217262285184
0 IRIDIUM 154
1 43574U 18061F   24004.72942512  .00000264  00000-0  87153-4 0  9991
2 43574  86.3956  70.5983 0002211 102.1974 257.9470 14.34217293285201
0 IRIDIUM 154
1 43574U 18061F   24005.21780481  .00000274  00000-0  90886-4 0  9999
2 43574  86.3956  70.3941 0002225 102.0717 258.0728 14.34217630285272
0 IRIDIUM 154
1 43574U 18061F   24005.56664745  .00000271  00000-0  89588-4 0  9995
2 43574  86.3955  70.2482 0002235 102.1518 257.9929 14.34217768285320
0 IRIDIUM 154
1 43574U 18061F   24005.70618446  .00000267  00000-0  88326-4 0  9992
2 43574  86.3955  70.1898 0002239 102.2395 257.9052 14.34217832285349
0 IRIDIUM 154
1 43574U 18061F   24006.26433244  .00000276  00000-0  91384-4 0  9993
2 43574  86.3954  69.9564 0002254 102.0766 258.0682 14.34218189285427
0 IRIDIUM 154
1 43574U 18061F   24006.68294338  .00000282  00000-0  93562-4 0  9995
2 43574  86.3954  69.7813 0002268 102.2154 257.9296 14.34218441285486
0 IRIDIUM 154
1 43574U 18061F   24007.58993361  .00000296  00000-0  98550-4 0  9994
2 43574  86.3953  69.4019 0002309 102.2596 257.8859 14.34218960285611
0 IRIDIUM 154
1 43574U 18061F   24007.72947237  .00000296  00000-0  98688-4 0  9993
2 43574  86.3954  69.3434 0002462 102.4163 257.7309 14.34214244285636
0 IRIDIUM 154
1 43574U 18061F   24008.56669471  .00000298  00000-0  99515-4 0  9999
2 43574  86.3952  68.9936 0002285 100.8698 259.2755 14.34216719285758
0 IRIDIUM 154
1 43574U 18061F   24008.70623188  .00000324  00000-0  10873-3 0  9999
2 43574  86.3951  68.9351 0002278 100.2813 259.8640 14.34216798285771
0 IRIDIUM 154
1 43574U 18061F   24009.12484320  .00000336  00000-0  11278-3 0  9992
2 43574  86.3950  68.7600 0002289 100.3166 259.8288 14.34217099285839
0 IRIDIUM 154
1 43574U 18061F   24009.61322293  .00000388  00000-0  13150-3 0  9994
2 43574  86.3950  68.5557 0002283  99.5572 260.5882 14.34217642285903
0 IRIDIUM 154
1 43574U 18061F   24009.68299147  .00000366  00000-0  12378-3 0  9999
2 43574  86.3950  68.5264 0002287  99.7851 260.3603 14.34217615285914
0 IRIDIUM 154
1 43574U 18061F   24010.17137111  .00000367  00000-0  12383-3 0  9994
2 43574  86.3949  68.3222 0002305  99.9862 260.1594 14.34217921285983
0 IRIDIUM 154
1 43574U 18061F   24010.24113961  .00000374  00000-0  12632-3 0  9994
2 43574  86.3949  68.2930 0002303  99.7787 260.3669 14.34217994285996
0 IRIDIUM 154
1 43574U 18061F   24011.21789836  .00000397  00000-0  13482-3 0  9991
2 43574  86.3948  67.8844 0002338 100.2869 259.8590 14.34218831286135
0 IRIDIUM 154
1 43574U 18061F   24011.56674061  .00000422  00000-0  14368-3 0  9995
2 43574  86.3947  67.7384 0002345 100.1498 259.9962 14.34219211286189
0 IRIDIUM 154
1 43574U 18061F   24011.70627753  .00000415  00000-0  14118-3 0  9992
2 43574  86.3947  67.6800 0002341  99.8467 260.2993 14.34219281286206
0 IRIDIUM 154
1 43574U 18061F   24012.54349867  .00000445  00000-0  15196-3 0  9992
2 43574  86.3946  67.3298 0002359  99.6062 260.5400 14.34220067286324
0 IRIDIUM 154
1 43574U 18061F   24013.59002750  .00000361  00000-0  12178-3 0  9999
2 43574  86.3944  66.8918 0002311  95.6615 264.4844 14.34218050286473
0 IRIDIUM 154
1 43574U 18061F   24013.65979586  .00000317  00000-0  10621-3 0  9998
2 43574  86.3945  66.8626 0002337  98.3011 261.8450 14.34218012286481
0 IRIDIUM 154
1 43574U 18061F   24014.56678653  .00000074  00000-0  19235-4 0  9991
2 43574  86.3944  66.4834 0002319  97.9710 262.1749 14.34217784286613
0 IRIDIUM 154
1 43574U 18061F   24014.63655509  .00000031  00000-0  40224-5 0  9990
2 43574  86.3943  66.4542 0002316  98.0241 262.1218 14.34217655286625
0 IRIDIUM 163
1 43575U 18061G   24001.29174141  .00000387  00000-0  13095-3 0  9995
2 43575  86.3956  71.9788 0002161  97.2466 262.8976 14.34217091284687
0 IRIDIUM 163
1 43575U 18061G   24001.57081551  .00000376  00000-0  12718-3 0  9997
2 43575  86.3956  71.8621 0002163  97.3013 262.8428 14.34217264284722
0 IRIDIUM 163
1 43575U 18061G   24001.71035260  .00000275  00000-0  91250-4 0  9996
2 43575  86.3956  71.8037 0002157  96.9702 263.1739 14.34217216284744
0 IRIDIUM 163
1 43575U 18061G   24002.61734324  .00000336  00000-0  11282-3 0  9997
2 43575  86.3955  71.4245 0002164  96.9225 263.2217 14.34217972284873
0 IRIDIUM 163
1 43575U 18061G   24002.68711173  .00000334  00000-0  11225-3 0  9996
2 43575  86.3955  71.3954 0002165  96.9303 263.2139 14.34218018284883
0 IRIDIUM 163
1 43575U 18061G   24003.59410214  .00000279  00000-0  92735-4 0  9993
2 43575  86.3955  71.0161 0002183  97.1615 262.9829 14.34218345285010
0 IRIDIUM 163
1 43575U 18061G   24003.73363910  .00000273  00000-0  90439-4 0  9992
2 43575  86.3954  70.9578 0002185  97.2420 262.9025 14.34218403285031
